[{"OBJECT_NAME":"GAOFEN-9 04","OBJECT_ID":"2020-054A","EPOCH":"2026-03-09T22:30:58.350240","MEAN_MOTION":15.3498743,"ECCENTRICITY":0.00126493,"INCLINATION":97.2525,"RA_OF_ASC_NODE":139.4278,"ARG_OF_PERICENTER":89.779,"MEAN_ANOMALY":270.4903,"EPHEMERIS_TYPE":0,"CLASSIFICATION_TYPE":"U","NORAD_CAT_ID":46025,"ELEMENT_SET_NO":999,"REV_AT_EPOCH":31112,"BSTAR":0.00016488112,"MEAN_MOTION_DOT":5.53e-5,"MEAN_MOTION_DDOT":0},{"OBJECT_NAME":"FLOCK 4BE-30","OBJECT_ID":"2024-149AH","EPOCH":"2026-03-09T19:28:17.914080","MEAN_MOTION":15.38312015,"ECCENTRICITY":0.00020027,"INCLINATION":97.38,"RA_OF_ASC_NODE":152.4815,"ARG_OF_PERICENTER":262.5505,"MEAN_ANOMALY":97.5512,"EPHEMERIS_TYPE":0,"CLASSIFICATION_TYPE":"U","NORAD_CAT_ID":60499,"ELEMENT_SET_NO":999,"REV_AT_EPOCH":8641,"BSTAR":0.00039222707,"MEAN_MOTION_DOT":0.00014739,"MEAN_MOTION_DDOT":0}]
